{
"type": "FeatureCollection",
"name": "bus_route",
"crs": { "type": "name", "properties": { "name": "urn:ogc:def:crs:OGC:1.3:CRS84" } },
"features": [
{ "type": "Feature", "properties": { "Red City T": 1 }, "geometry": { "type": "MultiLineString", "coordinates": [ [ [ 18.416608623352865, -33.907969515814422 ], [ 18.415219526276299, -33.908937560583716 ], [ 18.415081676948091, -33.909421578845574 ], [ 18.415155903509429, -33.909949595632888 ], [ 18.416417755052265, -33.911014419537437 ], [ 18.416958548570626, -33.911120021183059 ], [ 18.417743229361967, -33.911040819961109 ], [ 18.418803608809728, -33.910724014337326 ], [ 18.419503459245252, -33.910917617914009 ], [ 18.420160894502857, -33.911375224619775 ], [ 18.422684597588528, -33.911841628926197 ], [ 18.422748220355391, -33.910213602799914 ], [ 18.42264218241062, -33.909905594358882 ], [ 18.422430106521062, -33.909527182464714 ], [ 18.422271049603903, -33.909280773816498 ], [ 18.422175615453604, -33.908444739165866 ], [ 18.422387691343154, -33.908427138348252 ], [ 18.42254674826032, -33.909500781572184 ], [ 18.422833050711215, -33.909993596884178 ], [ 18.42373437324181, -33.909236772197225 ], [ 18.423797996008673, -33.909043164802533 ], [ 18.424063090870614, -33.909069565836795 ], [ 18.424031279487185, -33.909236772197225 ], [ 18.423808599803152, -33.909324775413083 ], [ 18.422896673478082, -33.910222403024726 ], [ 18.422811843122258, -33.911894429252889 ], [ 18.423593872964982, -33.913751219939279 ], [ 18.423882826364498, -33.914302309389683 ], [ 18.424036581384424, -33.914465105591361 ], [ 18.426226264944045, -33.916049052401064 ], [ 18.427572946842705, -33.917063202884165 ], [ 18.427843343601879, -33.917168797034591 ], [ 18.428214476408598, -33.917115999975728 ], [ 18.428389439017472, -33.917208394807268 ], [ 18.428468967476057, -33.917415182876709 ], [ 18.428384137120236, -33.917665967734379 ], [ 18.428182665025162, -33.917780360582235 ], [ 18.427938777752178, -33.917903552708168 ], [ 18.426138783639608, -33.919634823209172 ], [ 18.42603274569483, -33.919881201920489 ], [ 18.425868386880428, -33.920079184297229 ], [ 18.425566178737817, -33.920158377119115 ], [ 18.425338197156549, -33.920277166213921 ], [ 18.423265155336175, -33.922157971476985 ], [ 18.421160302132378, -33.920609334840684 ], [ 18.417979163789092, -33.923506406302579 ], [ 18.41594588619801, -33.922014987739843 ], [ 18.414689336552417, -33.923176448692821 ], [ 18.41124575429582, -33.926402279426981 ], [ 18.410773885441561, -33.927163350899562 ], [ 18.410413356429324, -33.927576878212584 ], [ 18.408101729233209, -33.929776457838578 ], [ 18.407571539509327, -33.930277954041159 ], [ 18.404671401719707, -33.9329107606573 ], [ 18.403388342587917, -33.93408966856466 ], [ 18.403017209781201, -33.934318409999392 ], [ 18.402582454207614, -33.934423982762034 ], [ 18.402285547962247, -33.934723104878742 ], [ 18.402009849305824, -33.935198179022088 ], [ 18.399645203137325, -33.93688731006602 ], [ 18.398553012306134, -33.937318385017562 ], [ 18.398234898471799, -33.937602101524348 ], [ 18.398224294677327, -33.93794519929294 ], [ 18.398287917444193, -33.938437850081201 ], [ 18.398012218787773, -33.938904106237352 ], [ 18.397566859419708, -33.939088848536315 ], [ 18.396824593806283, -33.939168023684601 ], [ 18.396538291355391, -33.939440737520641 ], [ 18.39651708376643, -33.939871799544356 ], [ 18.396612517916733, -33.940338047847661 ], [ 18.395361270168376, -33.941763168340451 ], [ 18.394870844673786, -33.94216232975721 ], [ 18.394823127598634, -33.942325072717885 ], [ 18.394942420286508, -33.942712135806801 ], [ 18.39568733684856, -33.943279531926763 ], [ 18.395970988350836, -33.943475810518073 ], [ 18.396066422501136, -33.943517595257795 ], [ 18.396607216019493, -33.94356157917219 ], [ 18.396750367244938, -33.94358796950992 ], [ 18.396880263727294, -33.943664941281554 ], [ 18.397193075664376, -33.943970628487548 ], [ 18.397588067008673, -33.944144363892384 ], [ 18.398845942128577, -33.944690858391766 ], [ 18.399222376832533, -33.94472164670988 ], [ 18.39962001912544, -33.944497331565863 ], [ 18.399773774145366, -33.944488534881501 ], [ 18.399890415884617, -33.944545713313587 ], [ 18.399916925370814, -33.944651273394996 ], [ 18.399853302603947, -33.944787621639733 ], [ 18.399217074935294, -33.945192266757594 ], [ 18.398840640231334, -33.945249444716957 ], [ 18.398268035329544, -33.945157080301968 ], [ 18.397700732324996, -33.944972351171295 ], [ 18.397562882996784, -33.94498554612251 ], [ 18.39750456212716, -33.945069114099269 ], [ 18.397462146949245, -33.94516587691723 ], [ 18.397520467818875, -33.945267037927493 ], [ 18.397663619044323, -33.945306622637922 ], [ 18.397838581653208, -33.945328614135761 ], [ 18.397949921495218, -33.945350605627915 ], [ 18.398591451061115, -33.945695871309873 ], [ 18.400362284738872, -33.9460345381978 ], [ 18.400797040312451, -33.946201672009536 ], [ 18.401470381261785, -33.946615106870702 ], [ 18.401772589404391, -33.947054928986546 ], [ 18.401960806756367, -33.947448567852895 ], [ 18.402422071816147, -33.947752042384174 ], [ 18.402825016006293, -33.948029126880741 ], [ 18.40309541276547, -33.948156673409301 ], [ 18.402597034425025, -33.94787079299315 ], [ 18.40199792003704, -33.947501346109988 ], [ 18.401701013791666, -33.946907588830882 ], [ 18.401425315135253, -33.946595314822055 ], [ 18.400614124857718, -33.946107109498477 ], [ 18.39987318471859, -33.945941075067893 ], [ 18.398669654045381, -33.945716763137398 ], [ 18.398062586811541, -33.945384692429514 ], [ 18.397680850210346, -33.945301124762572 ], [ 18.397495283806986, -33.945239548534403 ], [ 18.397463472423553, -33.945094404391845 ], [ 18.397532397087655, -33.94499324317642 ], [ 18.397717963491019, -33.944966853274359 ], [ 18.398576870843701, -33.945230751926772 ], [ 18.399223702306838, -33.945177972261739 ], [ 18.399918250845118, -33.944716148796729 ], [ 18.399902345153404, -33.944571003761673 ], [ 18.39978570341415, -33.944478638610505 ], [ 18.399631948394219, -33.944478638610505 ], [ 18.399536514243927, -33.944540215389075 ], [ 18.399229004204074, -33.944711750465977 ], [ 18.398963909342132, -33.94472494545758 ], [ 18.397277906020197, -33.943994819514536 ], [ 18.39680471169163, -33.943604463466841 ], [ 18.396661560466185, -33.9435604795746 ], [ 18.396118115999208, -33.943529690836513 ], [ 18.395943153390327, -33.943454918140525 ], [ 18.395023274219398, -33.942789658174135 ], [ 18.394922538171858, -33.942677498130472 ], [ 18.394784688843654, -33.942292634112029 ], [ 18.394681301847498, -33.942173875720748 ], [ 18.394156414020856, -33.942246450312879 ], [ 18.393750818882086, -33.942417990011954 ], [ 18.393342572794698, -33.942795706015445 ], [ 18.393130496905144, -33.943187165374248 ], [ 18.393019157063129, -33.944216387010016 ], [ 18.392409438880669, -33.945192816545834 ], [ 18.392335212319331, -33.946239606940857 ], [ 18.391041549393059, -33.947981296883249 ], [ 18.390002377534252, -33.94869379613268 ], [ 18.388570865279775, -33.95067732744058 ], [ 18.387796788282913, -33.95137661016112 ], [ 18.387478674448587, -33.951746040222055 ], [ 18.3873302213259, -33.952256202907776 ], [ 18.386291049467097, -33.953540391991076 ], [ 18.386100181166501, -33.954666240449477 ], [ 18.385676029387394, -33.955246750240185 ], [ 18.385145839663515, -33.956548485069625 ], [ 18.384880744801571, -33.957630317105469 ], [ 18.384265724721871, -33.958052491729418 ], [ 18.383396213574709, -33.9583163498056 ], [ 18.382738778317098, -33.958756111447371 ], [ 18.38203892788157, -33.958932015467624 ], [ 18.380936133255908, -33.960198513676886 ], [ 18.380808887722175, -33.960919705620789 ], [ 18.38029990558725, -33.961236324542902 ], [ 18.379769715863368, -33.962045456434488 ], [ 18.379790923452322, -33.962836991055255 ], [ 18.379451602029036, -33.963188781855841 ], [ 18.378815374360386, -33.963329497768711 ], [ 18.378370014992328, -33.962995297095539 ], [ 18.37813673151382, -33.962432429835964 ], [ 18.378560883292923, -33.959653218148127 ], [ 18.378242769458595, -33.957612726450677 ], [ 18.377330843133524, -33.956346189747727 ], [ 18.377776202501575, -33.955519412562772 ], [ 18.377754994912625, -33.954622262273638 ], [ 18.376821860998596, -33.953865834091687 ], [ 18.377564126612029, -33.952370549297058 ], [ 18.379048657838894, -33.949634989701003 ], [ 18.378985035072027, -33.948438704494279 ], [ 18.378454845348148, -33.947647035920596 ], [ 18.378815374360386, -33.946802581325485 ], [ 18.378921412305161, -33.946222013931333 ], [ 18.376737030642776, -33.944805764736472 ], [ 18.375676651195011, -33.943275133521766 ], [ 18.37535853736069, -33.941920413970465 ], [ 18.375761481550832, -33.94149815931371 ], [ 18.376715823053821, -33.941075902562538 ], [ 18.376949106532322, -33.940301759745857 ], [ 18.377648956967846, -33.939545204282865 ], [ 18.377606541789937, -33.938542318073985 ], [ 18.378221561869637, -33.937864923336349 ], [ 18.378327599814416, -33.936791637523179 ], [ 18.378666921237699, -33.935735933361229 ], [ 18.378051901157995, -33.934433880201816 ], [ 18.378157939102771, -33.933395742472037 ], [ 18.376122010563076, -33.931926492021056 ], [ 18.375697858783973, -33.930448418086669 ], [ 18.375782689139793, -33.929410231772401 ], [ 18.375294914593827, -33.928776755940241 ], [ 18.375697858783973, -33.928248855814338 ], [ 18.377415673489338, -33.928002501302522 ], [ 18.378985035072027, -33.926594747566035 ], [ 18.379048657838894, -33.9250813863503 ], [ 18.380724057366354, -33.923356825677843 ], [ 18.378921412305161, -33.92142985179197 ], [ 18.38161477610247, -33.920021989435639 ], [ 18.381954097525753, -33.919106866428677 ], [ 18.382611532783368, -33.918913281456156 ], [ 18.384159686777092, -33.919230056636735 ], [ 18.385792671126644, -33.918262128775282 ], [ 18.386534936740077, -33.916361438434897 ], [ 18.387743769310518, -33.913624721857943 ], [ 18.388931394292008, -33.9117239280802 ], [ 18.39041592551888, -33.910509509860972 ], [ 18.391433889788726, -33.909770290298965 ], [ 18.393745516984843, -33.908890258651589 ], [ 18.394816500227087, -33.907891411723043 ], [ 18.397128127423198, -33.906888152805593 ], [ 18.398384677068798, -33.906404120157887 ], [ 18.398225620151635, -33.905590059052201 ], [ 18.398490715013576, -33.904586773049353 ], [ 18.398978489559546, -33.903024615636717 ], [ 18.399540490666858, -33.901950890844816 ], [ 18.400197925924473, -33.901484432418691 ], [ 18.4024565341482, -33.90084194776675 ], [ 18.405775521819688, -33.899893613971258 ], [ 18.410674474868337, -33.899462349637979 ], [ 18.411575797398935, -33.899990428113632 ], [ 18.41208477953386, -33.900703328867849 ], [ 18.413569310760725, -33.901697859468115 ], [ 18.414799350920127, -33.902551562323104 ], [ 18.416230863174601, -33.903431659410231 ], [ 18.416973128788033, -33.902938806160762 ], [ 18.419486228079222, -33.905550455881198 ], [ 18.419518039462659, -33.906104898600994 ], [ 18.419088585786312, -33.906423921547393 ], [ 18.41843645242594, -33.906674738749679 ], [ 18.417991093057882, -33.906890352947727 ], [ 18.417519224203627, -33.907365582315634 ], [ 18.416644411159226, -33.907946414611736 ] ] ] } }
]
}
